CCSDS_OMM_VERS = 2.0
CREATION_DATE  = 
ORIGINATOR     = 

OBJECT_NAME    = STARLINK-36973
OBJECT_ID      = 2026-042K
CENTER_NAME    = EARTH
REF_FRAME      = TEME
TIME_SYSTEM    = UTC
MEAN_ELEMENT_THEORY = SGP/SGP4

EPOCH          = 2026-03-11T02:00:03.000384
MEAN_MOTION    = 15.98684344
ECCENTRICITY   = .000071
INCLINATION    = 53.1602
RA_OF_ASC_NODE = 188.1160
ARG_OF_PERICENTER = 89.7858
MEAN_ANOMALY   = 92.6782

EPHEMERIS_TYPE = 0
CLASSIFICATION_TYPE = U
NORAD_CAT_ID   = 68078
ELEMENT_SET_NO = 999
REV_AT_EPOCH   = 227
BSTAR          = -.26558E-2
MEAN_MOTION_DOT = -.1292372E-1
MEAN_MOTION_DDOT = .52172E-3

CCSDS_OMM_VERS = 2.0
CREATION_DATE  = 
ORIGINATOR     = 

OBJECT_NAME    = STARLINK-37063
OBJECT_ID      = 2026-042L
CENTER_NAME    = EARTH
REF_FRAME      = TEME
TIME_SYSTEM    = UTC
MEAN_ELEMENT_THEORY = SGP/SGP4

EPOCH          = 2026-03-11T02:00:03.000384
MEAN_MOTION    = 15.98543358
ECCENTRICITY   = .0001068
INCLINATION    = 53.1597
RA_OF_ASC_NODE = 188.1205
ARG_OF_PERICENTER = 69.9239
MEAN_ANOMALY   = 110.4784

EPHEMERIS_TYPE = 0
CLASSIFICATION_TYPE = U
NORAD_CAT_ID   = 68079
ELEMENT_SET_NO = 999
REV_AT_EPOCH   = 227
BSTAR          = -.26442E-2
MEAN_MOTION_DOT = -.1276837E-1
MEAN_MOTION_DDOT = .50959E-3

CCSDS_OMM_VERS = 2.0
CREATION_DATE  = 
ORIGINATOR     = 

OBJECT_NAME    = STARLINK-37051
OBJECT_ID      = 2026-042M
CENTER_NAME    = EARTH
REF_FRAME      = TEME
TIME_SYSTEM    = UTC
MEAN_ELEMENT_THEORY = SGP/SGP4

EPOCH          = 2026-03-11T02:00:03.000384
MEAN_MOTION    = 15.98919825
ECCENTRICITY   = .0000926
INCLINATION    = 53.1599
RA_OF_ASC_NODE = 188.1081
ARG_OF_PERICENTER = 73.4841
MEAN_ANOMALY   = 112.7775

EPHEMERIS_TYPE = 0
CLASSIFICATION_TYPE = U
NORAD_CAT_ID   = 68080
ELEMENT_SET_NO = 999
REV_AT_EPOCH   = 227
BSTAR          = -.25861E-2
MEAN_MOTION_DOT = -.1275477E-1
MEAN_MOTION_DDOT = .51063E-3

CCSDS_OMM_VERS = 2.0
CREATION_DATE  = 
ORIGINATOR     = 

OBJECT_NAME    = STARLINK-37066
OBJECT_ID      = 2026-042N
CENTER_NAME    = EARTH
REF_FRAME      = TEME
TIME_SYSTEM    = UTC
MEAN_ELEMENT_THEORY = SGP/SGP4

EPOCH          = 2026-03-11T02:00:03.000384
MEAN_MOTION    = 15.98812187
ECCENTRICITY   = .0000794
INCLINATION    = 53.1604
RA_OF_ASC_NODE = 188.1119
ARG_OF_PERICENTER = 67.9210
MEAN_ANOMALY   = 116.5294

EPHEMERIS_TYPE = 0
CLASSIFICATION_TYPE = U
NORAD_CAT_ID   = 68081
ELEMENT_SET_NO = 999
REV_AT_EPOCH   = 227
BSTAR          = -.26423E-2
MEAN_MOTION_DOT = -.1295061E-1
MEAN_MOTION_DDOT = .5244E-3

CCSDS_OMM_VERS = 2.0
CREATION_DATE  = 
ORIGINATOR     = 

OBJECT_NAME    = STARLINK-37054
OBJECT_ID      = 2026-042P
CENTER_NAME    = EARTH
REF_FRAME      = TEME
TIME_SYSTEM    = UTC
MEAN_ELEMENT_THEORY = SGP/SGP4

EPOCH          = 2026-03-11T02:00:03.000384
MEAN_MOTION    = 15.99110279
ECCENTRICITY   = .0000953
INCLINATION    = 53.1599
RA_OF_ASC_NODE = 188.1048
ARG_OF_PERICENTER = 59.0189
MEAN_ANOMALY   = 128.8423

EPHEMERIS_TYPE = 0
CLASSIFICATION_TYPE = U
NORAD_CAT_ID   = 68082
ELEMENT_SET_NO = 999
REV_AT_EPOCH   = 227
BSTAR          = -.28853E-2
MEAN_MOTION_DOT = -.1436281E-1
MEAN_MOTION_DDOT = .63549E-3

CCSDS_OMM_VERS = 2.0
CREATION_DATE  = 
ORIGINATOR     = 

OBJECT_NAME    = STARLINK-37065
OBJECT_ID      = 2026-042Q
CENTER_NAME    = EARTH
REF_FRAME      = TEME
TIME_SYSTEM    = UTC
MEAN_ELEMENT_THEORY = SGP/SGP4

EPOCH          = 2026-03-11T02:00:03.000384
MEAN_MOTION    = 15.99151383
ECCENTRICITY   = .0000973
INCLINATION    = 53.1601
RA_OF_ASC_NODE = 188.1010
ARG_OF_PERICENTER = 69.9114
MEAN_ANOMALY   = 119.7870

EPHEMERIS_TYPE = 0
CLASSIFICATION_TYPE = U
NORAD_CAT_ID   = 68083
ELEMENT_SET_NO = 999
REV_AT_EPOCH   = 227
BSTAR          = -.25716E-2
MEAN_MOTION_DOT = -.1284952E-1
MEAN_MOTION_DDOT = .51884E-3

CCSDS_OMM_VERS = 2.0
CREATION_DATE  = 
ORIGINATOR     = 

OBJECT_NAME    = STARLINK-37037
OBJECT_ID      = 2026-042R
CENTER_NAME    = EARTH
REF_FRAME      = TEME
TIME_SYSTEM    = UTC
MEAN_ELEMENT_THEORY = SGP/SGP4

EPOCH          = 2026-03-11T02:00:03.000384
MEAN_MOTION    = 15.99276713
ECCENTRICITY   = .0000931
INCLINATION    = 53.1597
RA_OF_ASC_NODE = 188.0971
ARG_OF_PERICENTER = 66.2552
MEAN_ANOMALY   = 125.4044

EPHEMERIS_TYPE = 0
CLASSIFICATION_TYPE = U
NORAD_CAT_ID   = 68084
ELEMENT_SET_NO = 999
REV_AT_EPOCH   = 227
BSTAR          = -.25515E-2
MEAN_MOTION_DOT = -.1283988E-1
MEAN_MOTION_DDOT = .51883E-3

CCSDS_OMM_VERS = 2.0
CREATION_DATE  = 
ORIGINATOR     = 

OBJECT_NAME    = STARLINK-37068
OBJECT_ID      = 2026-042S
CENTER_NAME    = EARTH
REF_FRAME      = TEME
TIME_SYSTEM    = UTC
MEAN_ELEMENT_THEORY = SGP/SGP4

EPOCH          = 2026-03-11T02:00:03.000384
MEAN_MOTION    = 15.99379902
ECCENTRICITY   = .0000845
INCLINATION    = 53.1596
RA_OF_ASC_NODE = 188.0943
ARG_OF_PERICENTER = 70.9450
MEAN_ANOMALY   = 122.0907

EPHEMERIS_TYPE = 0
CLASSIFICATION_TYPE = U
NORAD_CAT_ID   = 68085
ELEMENT_SET_NO = 999
REV_AT_EPOCH   = 227
BSTAR          = -.25498E-2
MEAN_MOTION_DOT = -.1290553E-1
MEAN_MOTION_DDOT = .52425E-3

CCSDS_OMM_VERS = 2.0
CREATION_DATE  = 
ORIGINATOR     = 

OBJECT_NAME    = STARLINK-37067
OBJECT_ID      = 2026-042T
CENTER_NAME    = EARTH
REF_FRAME      = TEME
TIME_SYSTEM    = UTC
MEAN_ELEMENT_THEORY = SGP/SGP4

EPOCH          = 2026-03-11T02:00:03.000384
MEAN_MOTION    = 15.99507487
ECCENTRICITY   = .0000734
INCLINATION    = 53.1599
RA_OF_ASC_NODE = 188.0898
ARG_OF_PERICENTER = 74.3551
MEAN_ANOMALY   = 120.8157

EPHEMERIS_TYPE = 0
CLASSIFICATION_TYPE = U
NORAD_CAT_ID   = 68086
ELEMENT_SET_NO = 999
REV_AT_EPOCH   = 227
BSTAR          = -.25124E-2
MEAN_MOTION_DOT = -.1280967E-1
MEAN_MOTION_DDOT = .51788E-3

CCSDS_OMM_VERS = 2.0
CREATION_DATE  = 
ORIGINATOR     = 

OBJECT_NAME    = STARLINK-37062
OBJECT_ID      = 2026-042U
CENTER_NAME    = EARTH
REF_FRAME      = TEME
TIME_SYSTEM    = UTC
MEAN_ELEMENT_THEORY = SGP/SGP4

EPOCH          = 2026-03-11T02:00:03.000384
MEAN_MOTION    = 15.99621059
ECCENTRICITY   = .0000731
INCLINATION    = 53.1598
RA_OF_ASC_NODE = 188.0860
ARG_OF_PERICENTER = 76.7938
MEAN_ANOMALY   = 120.1978

EPHEMERIS_TYPE = 0
CLASSIFICATION_TYPE = U
NORAD_CAT_ID   = 68087
ELEMENT_SET_NO = 999
REV_AT_EPOCH   = 227
BSTAR          = -.24798E-2
MEAN_MOTION_DOT = -.1272682E-1
MEAN_MOTION_DDOT = .51242E-3

CCSDS_OMM_VERS = 2.0
CREATION_DATE  = 
ORIGINATOR     = 

OBJECT_NAME    = STARLINK-37059
OBJECT_ID      = 2026-042V
CENTER_NAME    = EARTH
REF_FRAME      = TEME
TIME_SYSTEM    = UTC
MEAN_ELEMENT_THEORY = SGP/SGP4

EPOCH          = 2026-03-11T02:00:03.000384
MEAN_MOTION    = 15.99752520
ECCENTRICITY   = .000079
INCLINATION    = 53.1597
RA_OF_ASC_NODE = 188.0817
ARG_OF_PERICENTER = 74.2800
MEAN_ANOMALY   = 124.7471

EPHEMERIS_TYPE = 0
CLASSIFICATION_TYPE = U
NORAD_CAT_ID   = 68088
ELEMENT_SET_NO = 999
REV_AT_EPOCH   = 227
BSTAR          = -.24751E-2
MEAN_MOTION_DOT = -.1279706E-1
MEAN_MOTION_DDOT = .51831E-3

CCSDS_OMM_VERS = 2.0
CREATION_DATE  = 
ORIGINATOR     = 

OBJECT_NAME    = STARLINK-37004
OBJECT_ID      = 2026-042W
CENTER_NAME    = EARTH
REF_FRAME      = TEME
TIME_SYSTEM    = UTC
MEAN_ELEMENT_THEORY = SGP/SGP4

EPOCH          = 2026-03-11T02:00:03.000384
MEAN_MOTION    = 15.99869665
ECCENTRICITY   = .0000811
INCLINATION    = 53.1600
RA_OF_ASC_NODE = 188.0783
ARG_OF_PERICENTER = 82.4719
MEAN_ANOMALY   = 118.3185

EPHEMERIS_TYPE = 0
CLASSIFICATION_TYPE = U
NORAD_CAT_ID   = 68089
ELEMENT_SET_NO = 999
REV_AT_EPOCH   = 227
BSTAR          = -.24585E-2
MEAN_MOTION_DOT = -.1279642E-1
MEAN_MOTION_DDOT = .51892E-3

