STARLINK-36973          
1 68078U 26042K   26070.08336806 -.01292372  52172-3 -26558-2 0  9998
2 68078  53.1602 188.1160 0000710  89.7858  92.6782 15.98684344  2273
STARLINK-37063          
1 68079U 26042L   26070.08336806 -.01276837  50959-3 -26442-2 0  9990
2 68079  53.1597 188.1205 0001068  69.9239 110.4784 15.98543358  2277
STARLINK-37051          
1 68080U 26042M   26070.08336806 -.01275477  51063-3 -25861-2 0  9992
2 68080  53.1599 188.1081 0000926  73.4841 112.7775 15.98919825  2275
STARLINK-37066          
1 68081U 26042N   26070.08336806 -.01295061  52440-3 -26423-2 0  9999
2 68081  53.1604 188.1119 0000794  67.9210 116.5294 15.98812187  2277
STARLINK-37054          
1 68082U 26042P   26070.08336806 -.01436281  63549-3 -28853-2 0  9992
2 68082  53.1599 188.1048 0000953  59.0189 128.8423 15.99110279  2270
STARLINK-37065          
1 68083U 26042Q   26070.08336806 -.01284952  51884-3 -25716-2 0  9993
2 68083  53.1601 188.1010 0000973  69.9114 119.7870 15.99151383  2270
STARLINK-37037          
1 68084U 26042R   26070.08336806 -.01283988  51883-3 -25515-2 0  9998
2 68084  53.1597 188.0971 0000931  66.2552 125.4044 15.99276713  2272
STARLINK-37068          
1 68085U 26042S   26070.08336806 -.01290553  52425-3 -25498-2 0  9998
2 68085  53.1596 188.0943 0000845  70.9450 122.0907 15.99379902  2279
STARLINK-37067          
1 68086U 26042T   26070.08336806 -.01280967  51788-3 -25124-2 0  9994
2 68086  53.1599 188.0898 0000734  74.3551 120.8157 15.99507487  2273
STARLINK-37062          
1 68087U 26042U   26070.08336806 -.01272682  51242-3 -24798-2 0  9991
2 68087  53.1598 188.0860 0000731  76.7938 120.1978 15.99621059  2270
STARLINK-37059          
1 68088U 26042V   26070.08336806 -.01279706  51831-3 -24751-2 0  9999
2 68088  53.1597 188.0817 0000790  74.2800 124.7471 15.99752520  2274
STARLINK-37004          
1 68089U 26042W   26070.08336806 -.01279642  51892-3 -24585-2 0  9991
2 68089  53.1600 188.0783 0000811  82.4719 118.3185 15.99869665  2276
